#aV2015 10  3  0  0  0.00000000     288 DD+AD WGS84 FIT  NGA
## 1864 518400.00000000   300.00000000 57298 0.0000000000000
+   31     1  2  3  4  5  6  7  8  9 11 12 13 14 15 16 17 18
+         19 20 21 22 23 24 25 26 27 28 29 30 31 32  0  0  0
+          0  0  0  0  0  0  0  0  0  0  0  0  0  0  0  0  0
+          0  0  0  0  0  0  0  0  0  0  0  0  0  0  0  0  0
+          0  0  0  0  0  0  0  0  0  0  0  0  0  0  0  0  0
++         2  2  2  2  2  2  2  2  2  2  2  2  2  2  2  2  2
++         2  2  2  2  2  2  2  2  2  2  2  2  2  2  0  0  0
++         0  0  0  0  0  0  0  0  0  0  0  0  0  0  0  0  0
++         0  0  0  0  0  0  0  0  0  0  0  0  0  0  0  0  0
++         0  0  0  0  0  0  0  0  0  0  0  0  0  0  0  0  0
%c cc cc ccc ccc cccc cccc cccc cccc ccccc ccccc ccccc ccccc
%c cc cc ccc ccc cccc cccc cccc cccc ccccc ccccc ccccc ccccc
%f  0.0000000  0.000000000  0.00000000000  0.000000000000000
%f  0.0000000  0.000000000  0.00000000000  0.000000000000000
%i    0    0    0    0      0      0      0      0         0
%i    0    0    0    0      0      0      0      0         0
/*      NGA, ST. LOUIS,MO.                                  
/*   EPHEMERIS COMPUTED FROM  1 DAYS OF DATA                
/*   EPOCHA SMOOTHER                                       
/* CCCCCCCCCCCCCCCCCCCCCCCCCCCCCCCCCCCCCCCCCCCCCCCCCCCCCCCCC
*  2015 10  3  6 50  0.00000000
P  1 -18406.784226 -13546.011322 -13773.906201      1.635756                    
V  1  17335.795370   1516.131839 -24586.865407      0.007502                    
P  2  -5055.201327  15115.044738  21600.682259    591.337432                    
V  2 -26212.866696  -4782.670400  -3275.183740      0.014454                    
P  3 -13338.194892 -21467.314353   8133.608480     21.035560                    
V  3   -804.678102 -10636.229043 -29440.928048     -0.005733                    
P  4  -9332.187009 -16059.150104 -19426.569623    -27.584388                    
V  4  23775.651816   2891.988140 -13809.920735     -0.045724                    
P  5    365.418763  24203.270470  10644.999974   -189.073051                    
V  5  -7364.478782 -11935.359291  27426.415197      0.040039                    
P  6 -17950.399016   8867.117957  17444.609549     69.621762                    
V  6 -21426.138556  -5884.016516 -19060.228353      0.071687                    
P  7 -26100.532499  -5978.129535    209.231482    483.669428                    
V  7    596.785847  -2156.732632  31669.732037     -0.007517                    
P  8  -1295.329184 -18632.185514 -18843.754476     -7.399601                    
V  8  16794.735715 -17228.374632  15829.970038     -0.013580                    
P  9 -18089.702929    -50.184175  19446.915985     -5.717821                    
V  9  15178.737209 -19548.473385  14048.819629      0.029278                    
P 11 -14265.593791 -13024.917979 -18814.026304   -607.897877                    
V 11  22419.468224  -5621.462812 -13420.513374     -0.022721                    
P 12  10765.937496  23677.815372   5799.861926    333.517672                    
V 12    465.388927   7605.336242 -31138.404130      0.033437                    
P 13  -9236.281755  20999.708474 -13610.454260   -153.824069                    
V 13 -13758.055844  10140.918466  25122.876740     -0.028971                    
P 14  21366.807481 -13413.281910  -7799.104276     30.582654                    
V 14  -5468.864983   9108.036653 -29836.128822     -0.025879                    
P 15   3701.482987  18138.623315 -19028.421348   -274.827027                    
V 15 -16380.052433  17860.053365  14243.171750     -0.020160                    
P 16   1205.596832 -23831.112761  11176.612363    -80.343350                    
V 16   5553.968983  13426.255400  28182.758975      0.038624                    
P 17 -20777.008896  14436.352396  -7409.669254   -189.747831                    
V 17   5007.669364  -8855.547334 -30273.464370     -0.012527                    
P 18  17258.263358   5367.348858 -19040.133963    439.380042                    
V 18   7247.145507  24307.531510  12795.008103      0.035330                    
P 19 -11277.316844 -10116.170611 -22067.970768   -520.993563                    
V 19  19958.598206 -18787.990401  -1178.132427     -0.005302                    
P 20  13313.715227  22524.742688  -4464.829006    360.129719                    
V 20  -1367.930706   6598.772441  30334.721657      0.030209                    
P 21  26407.902992   3112.020486  -2069.354714   -484.066333                    
V 21   2813.527368   3953.797780  30812.055868     -0.026616                    
P 22  13075.720353  -9782.080985 -20687.937129    397.184767                    
V 22  10082.554153  25052.521107  -5587.277557      0.034516                    
P 23  -9511.404248 -12588.525956  21496.217314   -136.689822                    
V 23  18247.814036 -19902.790803  -4042.869854     -0.021601                    
P 24  16061.717840  14266.748820 -15753.985501     -5.683933                    
V 24 -19949.760218  -1509.564409 -21593.671606     -0.005793                    
P 25  16081.160287  13772.461814  16038.132487    -47.103927                    
V 25   5198.964228  19828.207748 -21940.968360     -0.053248                    
P 26   7608.129172 -17498.299988  18471.117226    -71.508742                    
V 26   9082.526604  21683.390789  16806.492461     -0.123443                    
P 27   9592.707828 -22280.682736 -10699.308545     24.484360                    
V 27  10655.711280  -8728.054987  27917.985437      0.030340                    
P 28 -13479.947434   4883.786114 -21732.879660    471.761841                    
V 28  -7503.555648 -28062.324109  -1684.823650      0.027041                    
P 29  16403.245356   3238.498241  20640.598862    637.575789                    
V 29 -17653.459440  19308.897918  11042.561160      0.020246                    
P 30 -24321.633037   1200.663795 -10705.154964     34.827348                    
V 30 -12417.050603  -6059.715199  27447.493373      0.063543                    
P 31  17689.063889  -8566.196133  18152.611386    300.637810                    
V 31  21784.232425   6233.247332 -18086.508981     -0.013746                    
P 32  -4636.919570 -26315.842155  -2743.839542    -25.621520                    
V 32   3499.488215   2595.595534 -30850.123663      0.112246                    
EOF
